OBJECT_NAME,OBJECT_ID,EPOCH,MEAN_MOTION,ECCENTRICITY,INCLINATION,RA_OF_ASC_NODE,ARG_OF_PERICENTER,MEAN_ANOMALY,EPHEMERIS_TYPE,CLASSIFICATION_TYPE,NORAD_CAT_ID,ELEMENT_SET_NO,REV_AT_EPOCH,BSTAR,MEAN_MOTION_DOT,MEAN_MOTION_DDOT
IRIDIUM 106,2017-003A,2026-06-09T08:25:42.185280,14.34217823,.0001901,86.3963,91.8318,81.2827,278.8584,0,U,41917,999,49208,.37995E-5,.3E-6,0
IRIDIUM 103,2017-003B,2026-06-09T08:07:26.234112,14.34216937,.0002345,86.3960,91.7368,80.2643,279.8817,0,U,41918,999,49210,-.65175E-5,.2E-7,0
IRIDIUM 109,2017-003C,2026-06-09T08:16:34.265856,14.34217905,.0002298,86.3963,91.7937,83.8271,276.3186,0,U,41919,999,49207,.61515E-5,.37E-6,0
IRIDIUM 102,2017-003D,2026-06-09T07:30:54.266112,14.34217710,.0002259,86.3959,91.7306,86.3470,273.7984,0,U,41920,999,49215,.23307E-4,.85E-6,0
IRIDIUM 105,2017-003E,2026-06-09T11:32:41.252928,14.34221457,.0002533,86.3971,60.0919,86.3381,273.8105,0,U,41921,999,49403,.56392E-4,.178E-5,0
IRIDIUM 104,2017-003F,2026-06-09T07:49:10.351200,14.34217258,.0002556,86.3961,91.7678,83.0023,277.1463,0,U,41922,999,49214,.75484E-4,.231E-5,0
IRIDIUM 114,2017-003G,2026-06-09T07:58:18.294816,14.34217725,.0002397,86.3960,91.7483,82.9414,277.2055,0,U,41923,999,49212,.23655E-5,.26E-6,0
IRIDIUM 108,2017-003H,2026-06-09T05:18:06.484896,14.34217382,.0002134,86.3963,60.0912,86.7873,273.3567,0,U,41924,999,49396,.51992E-6,.21E-6,0
IRIDIUM 112,2017-003J,2026-06-09T07:40:02.239968,14.34217251,.0002377,86.3957,91.5960,85.2331,274.9136,0,U,41925,999,49214,.16958E-4,.67E-6,0
IRIDIUM 111,2017-003K,2026-06-09T07:21:46.427040,14.34215392,.0002283,86.3960,91.6719,83.5972,276.5483,0,U,41926,999,49212,.59626E-4,.187E-5,0
IRIDIUM 113,2017-039A,2026-06-09T11:54:19.211616,14.34217778,.0002316,86.3965,325.3947,89.8560,270.2901,0,U,42803,999,47008,.24457E-4,.88E-6,0
IRIDIUM 123,2017-039B,2026-06-09T06:12:10.744416,14.34218658,.0002082,86.3974,356.9524,83.6753,276.4680,0,U,42804,999,46881,.36293E-4,.121E-5,0
IRIDIUM 120,2017-039C,2026-06-09T11:45:09.959040,14.34213279,.000198,86.3953,325.1807,93.5476,266.5946,0,U,42805,999,47007,.80824E-4,.246E-5,0
IRIDIUM 115,2017-039D,2026-06-09T11:48:44.358048,14.43280599,.000201,86.4492,325.3075,86.5843,273.5587,0,U,42806,999,47315,.94487E-4,.338E-5,0
IRIDIUM 118,2017-039E,2026-06-09T11:59:14.930304,14.34216931,.0002129,86.3965,356.8498,86.8678,273.2761,0,U,42807,999,46884,-.10025E-3,-.261E-5,0
IRIDIUM 117,2017-039F,2026-06-09T12:26:38.944320,14.34217549,.000204,86.3968,356.7996,85.6365,274.5064,0,U,42808,999,46887,.35348E-7,.2E-6,0
IRIDIUM 126,2017-039G,2026-06-09T11:22:42.830112,14.34217823,.0002276,86.3973,356.8691,85.6542,274.4914,0,U,42809,999,46884,.24532E-4,.88E-6,0
IRIDIUM 124,2017-039H,2026-06-09T08:33:35.906976,14.43281511,.0002206,86.4477,293.6337,91.9661,268.1792,0,U,42810,999,47398,.79812E-4,.289E-5,0
IRIDIUM 128,2017-039J,2026-06-09T09:28:54.696000,14.34217555,.0001885,86.3970,28.4083,85.5755,274.5656,0,U,42811,999,46886,-.18116E-5,.15E-6,0
IRIDIUM 121,2017-039K,2026-06-09T11:50:06.866592,14.34217207,.0002122,86.3975,356.8890,90.5604,269.5835,0,U,42812,999,46872,.53507E-4,.17E-5,0
IRIDIUM 133,2017-061A,2026-06-09T08:34:06.376800,14.34216879,.0002127,86.3978,28.5417,85.9106,274.2333,0,U,42955,999,45365,.27289E-4,.96E-6,0
IRIDIUM 100,2017-061B,2026-06-09T08:24:58.599936,14.34218175,.0002145,86.3975,28.4632,86.0794,274.0647,0,U,42956,999,45365,.12578E-4,.55E-6,0
IRIDIUM 122,2017-061C,2026-06-09T09:19:46.702272,14.34217678,.000222,86.3973,28.4478,84.4437,275.7012,0,U,42957,999,45366,-.52215E-6,.18E-6,0
IRIDIUM 129,2017-061D,2026-06-09T08:15:50.709024,14.34217867,.0002418,86.3976,28.5331,88.1271,272.0202,0,U,42958,999,45367,.25001E-4,.9E-6,0
IRIDIUM 119,2017-061E,2026-06-09T09:10:38.755200,14.34217574,.0002275,86.3976,28.5131,84.4251,275.7205,0,U,42959,999,45369,.3489E-5,.3E-6,0
IRIDIUM 107,2017-061F,2026-06-09T02:56:10.590720,14.34218146,.00020552,86.3978,28.6430,80.3223,279.8204,0,U,42960,999,45366,.32039763E-4,.11E-5,0
IRIDIUM 132,2017-061G,2026-06-09T03:05:18.617280,14.34218271,.00022296,86.3977,28.6197,85.6184,274.5267,0,U,42961,999,45366,.17515815E-4,.69E-6,0
IRIDIUM 136,2017-061H,2026-06-09T08:52:22.702944,14.34214606,.0002068,86.3973,28.5252,84.8072,275.3359,0,U,42962,999,45371,.46898E-4,.151E-5,0
IRIDIUM 139,2017-061J,2026-06-09T09:01:30.681984,14.34217730,.0002067,86.3979,28.5850,85.1651,274.9781,0,U,42963,999,45372,.2819E-4,.99E-6,0
IRIDIUM 125,2017-061K,2026-06-09T08:43:14.761056,14.34217354,.0002334,86.3974,28.6505,74.7999,285.3455,0,U,42964,999,45373,-.33457E-4,-.74E-6,0
IRIDIUM 135,2017-083A,2026-06-09T11:26:55.144896,14.34217649,.0002073,86.3959,325.2400,91.7247,268.4187,0,U,43070,999,44304,-.41514E-5,.8E-7,0
