IRIDIUM 106             
1 41917U 17003A   26160.35118270  .00000030  00000+0  37995-5 0  9995
2 41917  86.3963  91.8318 0001901  81.2827 278.8584 14.34217823492088
IRIDIUM 103             
1 41918U 17003B   26160.33849808  .00000002  00000+0 -65175-5 0  9993
2 41918  86.3960  91.7368 0002345  80.2643 279.8817 14.34216937492106
IRIDIUM 109             
1 41919U 17003C   26160.34484104  .00000037  00000+0  61515-5 0  9990
2 41919  86.3963  91.7937 0002298  83.8271 276.3186 14.34217905492078
IRIDIUM 102             
1 41920U 17003D   26160.31312808  .00000085  00000+0  23307-4 0  9999
2 41920  86.3959  91.7306 0002259  86.3470 273.7984 14.34217710492151
IRIDIUM 105             
1 41921U 17003E   26160.48103302  .00000178  00000+0  56392-4 0  9998
2 41921  86.3971  60.0919 0002533  86.3381 273.8105 14.34221457494039
IRIDIUM 104             
1 41922U 17003F   26160.32581425  .00000231  00000+0  75484-4 0  9991
2 41922  86.3961  91.7678 0002556  83.0023 277.1463 14.34217258492142
IRIDIUM 114             
1 41923U 17003G   26160.33215619  .00000026  00000+0  23655-5 0  9998
2 41923  86.3960  91.7483 0002397  82.9414 277.2055 14.34217725492126
IRIDIUM 108             
1 41924U 17003H   26160.22090839  .00000021  00000+0  51992-6 0  9993
2 41924  86.3963  60.0912 0002134  86.7873 273.3567 14.34217382493963
IRIDIUM 112             
1 41925U 17003J   26160.31947037  .00000067  00000+0  16958-4 0  9996
2 41925  86.3957  91.5960 0002377  85.2331 274.9136 14.34217251492144
IRIDIUM 111             
1 41926U 17003K   26160.30678735  .00000187  00000+0  59626-4 0  9994
2 41926  86.3960  91.6719 0002283  83.5972 276.5483 14.34215392492125
IRIDIUM 113             
1 42803U 17039A   26160.49605569  .00000088  00000+0  24457-4 0  9997
2 42803  86.3965 325.3947 0002316  89.8560 270.2901 14.34217778470081
IRIDIUM 123             
1 42804U 17039B   26160.25845769  .00000121  00000+0  36293-4 0  9999
2 42804  86.3974 356.9524 0002082  83.6753 276.4680 14.34218658468817
IRIDIUM 120             
1 42805U 17039C   26160.48969860  .00000246  00000+0  80824-4 0  9991
2 42805  86.3953 325.1807 0001980  93.5476 266.5946 14.34213279470075
IRIDIUM 115             
1 42806U 17039D   26160.49218007  .00000338  00000+0  94487-4 0  9995
2 42806  86.4492 325.3075 0002010  86.5843 273.5587 14.43280599473159
IRIDIUM 118             
1 42807U 17039E   26160.49947836 -.00000261  00000+0 -10025-3 0  9997
2 42807  86.3965 356.8498 0002129  86.8678 273.2761 14.34216931468842
IRIDIUM 117             
1 42808U 17039F   26160.51850630  .00000020  00000+0  35348-7 0  9996
2 42808  86.3968 356.7996 0002040  85.6365 274.5064 14.34217549468879
IRIDIUM 126             
1 42809U 17039G   26160.47410683  .00000088  00000+0  24532-4 0  9996
2 42809  86.3973 356.8691 0002276  85.6542 274.4914 14.34217823468842
IRIDIUM 124             
1 42810U 17039H   26160.35666559  .00000289  00000+0  79812-4 0  9994
2 42810  86.4477 293.6337 0002206  91.9661 268.1792 14.43281511473984
IRIDIUM 128             
1 42811U 17039J   26160.39507750  .00000015  00000+0 -18116-5 0  9995
2 42811  86.3970  28.4083 0001885  85.5755 274.5656 14.34217555468867
IRIDIUM 121             
1 42812U 17039K   26160.49313503  .00000170  00000+0  53507-4 0  9991
2 42812  86.3975 356.8890 0002122  90.5604 269.5835 14.34217207468723
IRIDIUM 133             
1 42955U 17061A   26160.35701825  .00000096  00000+0  27289-4 0  9992
2 42955  86.3978  28.5417 0002127  85.9106 274.2333 14.34216879453658
IRIDIUM 100             
1 42956U 17061B   26160.35067824  .00000055  00000+0  12578-4 0  9997
2 42956  86.3975  28.4632 0002145  86.0794 274.0647 14.34218175453656
IRIDIUM 122             
1 42957U 17061C   26160.38873498  .00000018  00000+0 -52215-6 0  9997
2 42957  86.3973  28.4478 0002220  84.4437 275.7012 14.34217678453665
IRIDIUM 129             
1 42958U 17061D   26160.34433691  .00000090  00000+0  25001-4 0  9991
2 42958  86.3976  28.5331 0002418  88.1271 272.0202 14.34217867453676
IRIDIUM 119             
1 42959U 17061E   26160.38239300  .00000030  00000+0  34890-5 0  9998
2 42959  86.3976  28.5131 0002275  84.4251 275.7205 14.34217574453693
IRIDIUM 107             
1 42960U 17061F   26160.12234480  .00000110  00000+0  32040-4 0  9999
2 42960  86.3978  28.6430 0002055  80.3223 279.8204 14.34218146453667
IRIDIUM 132             
1 42961U 17061G   26160.12868770  .00000069  00000+0  17516-4 0  9999
2 42961  86.3977  28.6197 0002229  85.6184 274.5267 14.34218271453664
IRIDIUM 136             
1 42962U 17061H   26160.36970721  .00000151  00000+0  46898-4 0  9993
2 42962  86.3973  28.5252 0002068  84.8072 275.3359 14.34214606453715
IRIDIUM 139             
1 42963U 17061J   26160.37604956  .00000099  00000+0  28190-4 0  9995
2 42963  86.3979  28.5850 0002067  85.1651 274.9781 14.34217730453728
IRIDIUM 125             
1 42964U 17061K   26160.36336529 -.00000074  00000+0 -33457-4 0  9990
2 42964  86.3974  28.6505 0002334  74.7999 285.3455 14.34217354453735
IRIDIUM 135             
1 43070U 17083A   26160.47702714  .00000008  00000+0 -41514-5 0  9998
2 43070  86.3959 325.2400 0002073  91.7247 268.4187 14.34217649443046
